COSMOS 2419 (714)       
1 28915U 05050A   17210.78527333 -.00000049  00000-0  00000-0 0  9998
2 28915  65.5151  64.4194 0016565 357.7019   4.1701  2.13106792 90242
COSMOS 2425 (716)       
1 29670U 06062A   17210.69281127 -.00000061  00000-0  10000-3 0  9997
2 29670  65.4391 303.4312 0019630 345.3907 357.4289  2.13104960 82431
COSMOS 2426 (717)       
1 29671U 06062B   17210.60850730 -.00000061  00000-0  10000-3 0  9991
2 29671  65.4576 303.5246 0019117 165.3088 330.8578  2.13102965 82444
COSMOS 2424 (715)       
1 29672U 06062C   17210.72715744 -.00000061  00000-0  10000-3 0  9990
2 29672  65.4415 303.4412 0018415 164.0015 238.4056  2.13102386 82448
COSMOS 2433 (720)       
1 32275U 07052A   17210.69720976 -.00000049  00000-0  10000-3 0  9998
2 32275  65.5303  64.2005 0000919 298.9517 239.2713  2.13104616 75957
COSMOS 2432 (719)       
1 32276U 07052B   17210.61015059 -.00000049  00000-0  10000-3 0  9990
2 32276  65.5409  64.2765 0011386 345.2121  79.0286  2.13104096 75952
COSMOS 2434 (721)       
1 32393U 07065A   17210.65706046 -.00000061  00000-0  00000-0 0  9991
2 32393  65.0556 302.5602 0004974 127.9925 268.8186  2.13102952 74663
COSMOS 2436 (723)       
1 32395U 07065C   17210.68044686 -.00000061  00000-0  10000-3 0  9995
2 32395  65.0664 302.6069 0013285   1.1530 102.5044  2.13104361 74598
COSMOS 2443 (725)       
1 33379U 08046B   17209.62576811 -.00000050  00000-0  00000-0 0  9994
2 33379  65.4607  63.6142 0012176 175.9813 160.0065  2.13099612 68799
COSMOS 2456 (730)       
1 36111U 09070A   17210.63641167  .00000064  00000-0  00000-0 0  9993
2 36111  64.1829 182.1246 0006497 298.6659 253.5552  2.13102986 59327
COSMOS 2457 (733)       
1 36112U 09070B   17210.71302263  .00000064  00000-0  00000-0 0  9994
2 36112  64.1648 182.0400 0006257 192.5797 186.7748  2.13101677 59338
COSMOS 2458 (734)       
1 36113U 09070C   17210.64313213  .00000063  00000-0  10000-3 0  9997
2 36113  64.1702 182.0499 0002925 300.8767  72.9049  2.13101953 59334
COSMOS 2459 (731)       
1 36400U 10007A   17210.78276150 -.00000049  00000-0  10000-3 0  9996
2 36400  65.4419  63.2966 0027955 356.3362 109.2594  2.13102275 57681
COSMOS 2461 (735)       
1 36401U 10007B   17210.49174087 -.00000050  00000-0  10000-3 0  9993
2 36401  65.4334  63.2843 0008531  67.6661  85.2858  2.13102332 57674
COSMOS 2460 (732)       
1 36402U 10007C   17210.71873049 -.00000049  00000-0  10000-3 0  9991
2 36402  65.4253  63.2485 0002095  61.8550 306.4144  2.13101740 57688
COSMOS 2465 (737)       
1 37138U 10041B   17210.60550869 -.00000061  00000-0  00000-0 0  9996
2 37138  64.6537 302.5287 0036495 170.7368 230.9138  2.13097485 53756
COSMOS 2464 (736)       
1 37139U 10041C   17210.63000404 -.00000061  00000-0  00000-0 0  9995
2 37139  64.6610 302.5280 0021687  14.0388 229.7513  2.13102653 53747
COSMOS 2471 (701K)      
1 37372U 11009A   17210.61309109 -.00000049  00000-0  00000-0 0  9997
2 37372  65.4210  63.2003 0006685 230.2682 193.9952  2.13107630 49952
COSMOS 2474 (742)       
1 37829U 11055A   17210.58319635  .00000065  00000-0  00000-0 0  9993
2 37829  64.5066 182.7088 0010877 253.9607 117.0348  2.13101924 45328
COSMOS 2476 (744)       
1 37867U 11064A   17210.66065737  .00000065  00000-0  00000-0 0  9995
2 37867  64.4867 182.7769 0020128 246.7943 229.5832  2.13101995 44679
COSMOS 2477 (745)       
1 37868U 11064B   17210.62982736  .00000065  00000-0  00000-0 0  9999
2 37868  64.4947 182.8233 0018018 248.3972  23.4197  2.13101852 44623
COSMOS 2475 (743)       
1 37869U 11064C   17210.69448222  .00000065  00000-0  00000-0 0  9994
2 37869  64.5025 182.8123 0022969 270.8485   6.9998  2.13102137 44632
COSMOS 2485 (747)       
1 39155U 13019A   17210.83197347  .00000065  00000-0  00000-0 0  9991
2 39155  64.6562 182.8097 0020407 242.0226  50.7837  2.13102029 33141
COSMOS 2492 (754)       
1 39620U 14012A   17210.84945723 -.00000049  00000-0  10000-3 0  9999
2 39620  65.3135  63.1743 0014327 339.3217   1.1409  2.13103242 26094
COSMOS 2500 (755)       
1 40001U 14032A   17210.64029451 -.00000049  00000-0  00000-0 0  9991
2 40001  65.2528  63.1767 0004466 190.3089 212.6530  2.13102842 24317
COSMOS 2501 (702K)      
1 40315U 14075A   17210.52044124 -.00000062  00000-0  00000-0 0  9992
2 40315  64.3883 303.8589 0016014 206.0610 270.4594  2.13098693 20712
COSMOS 2514 (751)       
1 41330U 16008A   17210.57268176 -.00000050  00000-0  00000-0 0  9995
2 41330  65.0527  63.3119 0007535 208.6426 322.5425  2.13103397 11474
COSMOS 2516 (753)       
1 41554U 16032A   17210.61569110 -.00000062  00000-0  00000-0 0  9990
2 41554  64.6075 303.6314 0012839 215.3735 241.1747  2.13101612  9088
